CCSDS_OMM_VERS = 2.0
CREATION_DATE  = 
ORIGINATOR     = 

OBJECT_NAME    = STARLINK-36846
OBJECT_ID      = 2026-035R
CENTER_NAME    = EARTH
REF_FRAME      = TEME
TIME_SYSTEM    = UTC
MEAN_ELEMENT_THEORY = SGP/SGP4

EPOCH          = 2026-03-23T12:54:42.354144
MEAN_MOTION    = 15.75204299
ECCENTRICITY   = .0002324
INCLINATION    = 97.2863
RA_OF_ASC_NODE = 15.6185
ARG_OF_PERICENTER = 81.7027
MEAN_ANOMALY   = 278.4502

EPHEMERIS_TYPE = 0
CLASSIFICATION_TYPE = U
NORAD_CAT_ID   = 67894
ELEMENT_SET_NO = 999
REV_AT_EPOCH   = 602
BSTAR          = .11927E-2
MEAN_MOTION_DOT = .181727E-2
MEAN_MOTION_DDOT = 0

CCSDS_OMM_VERS = 2.0
CREATION_DATE  = 
ORIGINATOR     = 

OBJECT_NAME    = STARLINK-36866
OBJECT_ID      = 2026-035S
CENTER_NAME    = EARTH
REF_FRAME      = TEME
TIME_SYSTEM    = UTC
MEAN_ELEMENT_THEORY = SGP/SGP4

EPOCH          = 2026-03-23T12:43:32.221056
MEAN_MOTION    = 15.75175721
ECCENTRICITY   = .0002194
INCLINATION    = 97.2858
RA_OF_ASC_NODE = 15.6279
ARG_OF_PERICENTER = 94.8351
MEAN_ANOMALY   = 265.3165

EPHEMERIS_TYPE = 0
CLASSIFICATION_TYPE = U
NORAD_CAT_ID   = 67895
ELEMENT_SET_NO = 999
REV_AT_EPOCH   = 602
BSTAR          = .13445E-2
MEAN_MOTION_DOT = .205181E-2
MEAN_MOTION_DDOT = 0

CCSDS_OMM_VERS = 2.0
CREATION_DATE  = 
ORIGINATOR     = 

OBJECT_NAME    = STARLINK-36877
OBJECT_ID      = 2026-035T
CENTER_NAME    = EARTH
REF_FRAME      = TEME
TIME_SYSTEM    = UTC
MEAN_ELEMENT_THEORY = SGP/SGP4

EPOCH          = 2026-03-23T12:00:02.998944
MEAN_MOTION    = 15.77916232
ECCENTRICITY   = .0001793
INCLINATION    = 97.2860
RA_OF_ASC_NODE = 15.6577
ARG_OF_PERICENTER = 104.4713
MEAN_ANOMALY   = 225.5010

EPHEMERIS_TYPE = 0
CLASSIFICATION_TYPE = U
NORAD_CAT_ID   = 67896
ELEMENT_SET_NO = 999
REV_AT_EPOCH   = 598
BSTAR          = -.1351E-1
MEAN_MOTION_DOT = -.197081E-1
MEAN_MOTION_DDOT = 0

CCSDS_OMM_VERS = 2.0
CREATION_DATE  = 
ORIGINATOR     = 

OBJECT_NAME    = STARLINK-36870
OBJECT_ID      = 2026-035U
CENTER_NAME    = EARTH
REF_FRAME      = TEME
TIME_SYSTEM    = UTC
MEAN_ELEMENT_THEORY = SGP/SGP4

EPOCH          = 2026-03-23T12:00:02.998944
MEAN_MOTION    = 15.75091095
ECCENTRICITY   = .0001507
INCLINATION    = 97.2861
RA_OF_ASC_NODE = 15.6437
ARG_OF_PERICENTER = 105.7912
MEAN_ANOMALY   = 189.2749

EPHEMERIS_TYPE = 0
CLASSIFICATION_TYPE = U
NORAD_CAT_ID   = 67897
ELEMENT_SET_NO = 999
REV_AT_EPOCH   = 598
BSTAR          = .43283E-3
MEAN_MOTION_DOT = .64643E-3
MEAN_MOTION_DDOT = 0

CCSDS_OMM_VERS = 2.0
CREATION_DATE  = 
ORIGINATOR     = 

OBJECT_NAME    = STARLINK-36810
OBJECT_ID      = 2026-035V
CENTER_NAME    = EARTH
REF_FRAME      = TEME
TIME_SYSTEM    = UTC
MEAN_ELEMENT_THEORY = SGP/SGP4

EPOCH          = 2026-03-23T07:55:21.313920
MEAN_MOTION    = 15.75221440
ECCENTRICITY   = .0001945
INCLINATION    = 97.2863
RA_OF_ASC_NODE = 15.4395
ARG_OF_PERICENTER = 93.9707
MEAN_ANOMALY   = 266.1780

EPHEMERIS_TYPE = 0
CLASSIFICATION_TYPE = U
NORAD_CAT_ID   = 67898
ELEMENT_SET_NO = 999
REV_AT_EPOCH   = 599
BSTAR          = .91729E-3
MEAN_MOTION_DOT = .139134E-2
MEAN_MOTION_DDOT = 0

CCSDS_OMM_VERS = 2.0
CREATION_DATE  = 
ORIGINATOR     = 

OBJECT_NAME    = STARLINK-36878
OBJECT_ID      = 2026-035W
CENTER_NAME    = EARTH
REF_FRAME      = TEME
TIME_SYSTEM    = UTC
MEAN_ELEMENT_THEORY = SGP/SGP4

EPOCH          = 2026-03-23T08:57:56.324448
MEAN_MOTION    = 15.80806906
ECCENTRICITY   = .0002251
INCLINATION    = 97.2882
RA_OF_ASC_NODE = 15.5335
ARG_OF_PERICENTER = 81.2062
MEAN_ANOMALY   = 278.9461

EPHEMERIS_TYPE = 0
CLASSIFICATION_TYPE = U
NORAD_CAT_ID   = 67899
ELEMENT_SET_NO = 999
REV_AT_EPOCH   = 600
BSTAR          = .20727E-3
MEAN_MOTION_DOT = .39728E-3
MEAN_MOTION_DDOT = 0

CCSDS_OMM_VERS = 2.0
CREATION_DATE  = 
ORIGINATOR     = 

OBJECT_NAME    = STARLINK-36361
OBJECT_ID      = 2026-035X
CENTER_NAME    = EARTH
REF_FRAME      = TEME
TIME_SYSTEM    = UTC
MEAN_ELEMENT_THEORY = SGP/SGP4

EPOCH          = 2026-03-23T08:56:51.589248
MEAN_MOTION    = 15.80815799
ECCENTRICITY   = .0002502
INCLINATION    = 97.2874
RA_OF_ASC_NODE = 15.5349
ARG_OF_PERICENTER = 97.6905
MEAN_ANOMALY   = 262.4647

EPHEMERIS_TYPE = 0
CLASSIFICATION_TYPE = U
NORAD_CAT_ID   = 67900
ELEMENT_SET_NO = 999
REV_AT_EPOCH   = 600
BSTAR          = .67722E-3
MEAN_MOTION_DOT = .131564E-2
MEAN_MOTION_DDOT = 0

CCSDS_OMM_VERS = 2.0
CREATION_DATE  = 
ORIGINATOR     = 

OBJECT_NAME    = STARLINK-36336
OBJECT_ID      = 2026-035Y
CENTER_NAME    = EARTH
REF_FRAME      = TEME
TIME_SYSTEM    = UTC
MEAN_ELEMENT_THEORY = SGP/SGP4

EPOCH          = 2026-03-23T07:46:42.827520
MEAN_MOTION    = 15.75238305
ECCENTRICITY   = .0001959
INCLINATION    = 97.2859
RA_OF_ASC_NODE = 15.4498
ARG_OF_PERICENTER = 90.8755
MEAN_ANOMALY   = 269.2735

EPHEMERIS_TYPE = 0
CLASSIFICATION_TYPE = U
NORAD_CAT_ID   = 67901
ELEMENT_SET_NO = 999
REV_AT_EPOCH   = 599
BSTAR          = .18795E-2
MEAN_MOTION_DOT = .290575E-2
MEAN_MOTION_DDOT = 0

CCSDS_OMM_VERS = 2.0
CREATION_DATE  = 
ORIGINATOR     = 

OBJECT_NAME    = STARLINK-36876
OBJECT_ID      = 2026-035Z
CENTER_NAME    = EARTH
REF_FRAME      = TEME
TIME_SYSTEM    = UTC
MEAN_ELEMENT_THEORY = SGP/SGP4

EPOCH          = 2026-03-23T12:00:02.998944
MEAN_MOTION    = 15.75164383
ECCENTRICITY   = .0001428
INCLINATION    = 97.2854
RA_OF_ASC_NODE = 15.6676
ARG_OF_PERICENTER = 93.9882
MEAN_ANOMALY   = 253.0600

EPHEMERIS_TYPE = 0
CLASSIFICATION_TYPE = U
NORAD_CAT_ID   = 67902
ELEMENT_SET_NO = 999
REV_AT_EPOCH   = 598
BSTAR          = .17555E-3
MEAN_MOTION_DOT = .26105E-3
MEAN_MOTION_DDOT = 0

CCSDS_OMM_VERS = 2.0
CREATION_DATE  = 
ORIGINATOR     = 

OBJECT_NAME    = STARLINK-36257
OBJECT_ID      = 2026-035AA
CENTER_NAME    = EARTH
REF_FRAME      = TEME
TIME_SYSTEM    = UTC
MEAN_ELEMENT_THEORY = SGP/SGP4

EPOCH          = 2026-03-23T12:45:33.135264
MEAN_MOTION    = 15.75182684
ECCENTRICITY   = .0001726
INCLINATION    = 97.2871
RA_OF_ASC_NODE = 15.6271
ARG_OF_PERICENTER = 47.8096
MEAN_ANOMALY   = 312.3316

EPHEMERIS_TYPE = 0
CLASSIFICATION_TYPE = U
NORAD_CAT_ID   = 67903
ELEMENT_SET_NO = 999
REV_AT_EPOCH   = 602
BSTAR          = .10893E-2
MEAN_MOTION_DOT = .165476E-2
MEAN_MOTION_DDOT = 0

CCSDS_OMM_VERS = 2.0
CREATION_DATE  = 
ORIGINATOR     = 

OBJECT_NAME    = STARLINK-36814
OBJECT_ID      = 2026-036A
CENTER_NAME    = EARTH
REF_FRAME      = TEME
TIME_SYSTEM    = UTC
MEAN_ELEMENT_THEORY = SGP/SGP4

EPOCH          = 2026-03-22T14:44:56.613696
MEAN_MOTION    = 15.50597032
ECCENTRICITY   = .00018134
INCLINATION    = 43.0003
RA_OF_ASC_NODE = 173.6060
ARG_OF_PERICENTER = 246.0294
MEAN_ANOMALY   = 114.0377

EPHEMERIS_TYPE = 0
CLASSIFICATION_TYPE = U
NORAD_CAT_ID   = 67904
ELEMENT_SET_NO = 999
REV_AT_EPOCH   = 568
BSTAR          = .15665001E-2
MEAN_MOTION_DOT = .92713E-3
MEAN_MOTION_DDOT = 0

CCSDS_OMM_VERS = 2.0
CREATION_DATE  = 
ORIGINATOR     = 

OBJECT_NAME    = STARLINK-36729
OBJECT_ID      = 2026-036B
CENTER_NAME    = EARTH
REF_FRAME      = TEME
TIME_SYSTEM    = UTC
MEAN_ELEMENT_THEORY = SGP/SGP4

EPOCH          = 2026-03-23T12:00:02.998944
MEAN_MOTION    = 15.41877098
ECCENTRICITY   = .0001517
INCLINATION    = 42.9991
RA_OF_ASC_NODE = 167.8624
ARG_OF_PERICENTER = 296.8911
MEAN_ANOMALY   = 201.4968

EPHEMERIS_TYPE = 0
CLASSIFICATION_TYPE = U
NORAD_CAT_ID   = 67905
ELEMENT_SET_NO = 999
REV_AT_EPOCH   = 586
BSTAR          = -.49843E-1
MEAN_MOTION_DOT = -.1936589E-1
MEAN_MOTION_DDOT = 0

CCSDS_OMM_VERS = 2.0
CREATION_DATE  = 
ORIGINATOR     = 

OBJECT_NAME    = STARLINK-36763
OBJECT_ID      = 2026-036C
CENTER_NAME    = EARTH
REF_FRAME      = TEME
TIME_SYSTEM    = UTC
MEAN_ELEMENT_THEORY = SGP/SGP4

EPOCH          = 2026-03-23T12:00:02.998944
MEAN_MOTION    = 15.40395452
ECCENTRICITY   = .000136
INCLINATION    = 42.9988
RA_OF_ASC_NODE = 167.8182
ARG_OF_PERICENTER = 290.1460
MEAN_ANOMALY   = 225.9796

EPHEMERIS_TYPE = 0
CLASSIFICATION_TYPE = U
NORAD_CAT_ID   = 67906
ELEMENT_SET_NO = 999
REV_AT_EPOCH   = 586
BSTAR          = -.52375E-1
MEAN_MOTION_DOT = -.1936116E-1
MEAN_MOTION_DDOT = 0

CCSDS_OMM_VERS = 2.0
CREATION_DATE  = 
ORIGINATOR     = 

OBJECT_NAME    = STARLINK-36742
OBJECT_ID      = 2026-036D
CENTER_NAME    = EARTH
REF_FRAME      = TEME
TIME_SYSTEM    = UTC
MEAN_ELEMENT_THEORY = SGP/SGP4

EPOCH          = 2026-03-23T12:00:02.998944
MEAN_MOTION    = 15.43552743
ECCENTRICITY   = .0001358
INCLINATION    = 42.9994
RA_OF_ASC_NODE = 167.8115
ARG_OF_PERICENTER = 297.1532
MEAN_ANOMALY   = 221.8372

EPHEMERIS_TYPE = 0
CLASSIFICATION_TYPE = U
NORAD_CAT_ID   = 67907
ELEMENT_SET_NO = 999
REV_AT_EPOCH   = 586
BSTAR          = -.46945E-1
MEAN_MOTION_DOT = -.1931323E-1
MEAN_MOTION_DDOT = 0

CCSDS_OMM_VERS = 2.0
CREATION_DATE  = 
ORIGINATOR     = 

OBJECT_NAME    = STARLINK-36827
OBJECT_ID      = 2026-036E
CENTER_NAME    = EARTH
REF_FRAME      = TEME
TIME_SYSTEM    = UTC
MEAN_ELEMENT_THEORY = SGP/SGP4

EPOCH          = 2026-03-23T12:00:02.998944
MEAN_MOTION    = 15.38198848
ECCENTRICITY   = .0001012
INCLINATION    = 42.9991
RA_OF_ASC_NODE = 167.6086
ARG_OF_PERICENTER = 293.6105
MEAN_ANOMALY   = 307.6123

EPHEMERIS_TYPE = 0
CLASSIFICATION_TYPE = U
NORAD_CAT_ID   = 67908
ELEMENT_SET_NO = 999
REV_AT_EPOCH   = 586
BSTAR          = -.53893E-1
MEAN_MOTION_DOT = -.1860543E-1
MEAN_MOTION_DDOT = 0

